MAKERSAT 0              
1 43016U 17073D   26068.63673096  .00023659  00000+0  71590-3 0  9993
2 43016  97.4777 310.6155 0115258 266.0743  92.7313 15.27797199451246
STARLINK-31727          
1 59638U 24082H   26067.61913985 -.00000502  00000+0 -87427-5 0  9991
2 59638  43.0027 146.2440 0001098 232.1445 127.9307 15.27561531104694
